IRIDIUM 7               
1 24793U 97020B   25057.86172532  .00001173  00000+0  39909-3 0  9990
2 24793  86.3953 223.0897 0002290  95.0858 265.0600 14.35785457456069
IRIDIUM 5               
1 24795U 97020D   25057.50434502  .00011758  00000+0  10022-2 0  9995
2 24795  86.3932 134.7270 0112752 174.2727 185.9823 14.92754290468942
IRIDIUM 911             
1 24842U 97030G   25057.79043765  .00001561  00000+0  41983-3 0  9999
2 24842  86.4408 250.5296 0016209 103.9980 256.3026 14.47396615459119
IRIDIUM 17              
1 24870U 97034B   25057.86959306  .00000965  00000+0  31510-3 0  9991
2 24870  86.3915 281.1718 0003026  55.9787 304.1698 14.37653186447735
IRIDIUM 920             
1 24871U 97034C   25057.84870561  .00001053  00000+0  31892-3 0  9997
2 24871  86.3917 260.6391 0013600  86.6010 273.6745 14.41355049450689
